{
  "norad_id": 63171,
  "name": "QIANFAN-85",
  "history": [
    {
      "epoch": "2026-04-11T19:50:55.076640Z",
      "apogee_km": 1079.3042048361694,
      "perigee_km": 1057.8992989677026,
      "latitude_deg": 6.624354252723452e-05,
      "longitude_deg": 169.72818227968602,
      "height_km": 1079.0614370731919,
      "semi_major_axis_km": 7446.738751901936,
      "eccentricity": 0.0014372,
      "inclination_deg": 88.9693,
      "raan_deg": 307.4986,
      "arg_perigee_deg": 134.7007,
      "mean_anomaly_deg": 225.5318,
      "mean_motion_rev_day": 13.50994512
    },
    {
      "epoch": "2026-04-13T05:37:18.108768Z",
      "apogee_km": 1079.4005368929456,
      "perigee_km": 1057.8280430809818,
      "latitude_deg": 4.283277887706116e-05,
      "longitude_deg": 21.598603546707253,
      "height_km": 1078.6329013083641,
      "semi_major_axis_km": 7446.7512899869635,
      "eccentricity": 0.00144845,
      "inclination_deg": 88.9691,
      "raan_deg": 307.352,
      "arg_perigee_deg": 131.0908,
      "mean_anomaly_deg": 229.1497,
      "mean_motion_rev_day": 13.509911
    },
    {
      "epoch": "2026-04-14T18:56:59.534016Z",
      "apogee_km": 1079.4910222812732,
      "perigee_km": 1057.7375723914938,
      "latitude_deg": 4.725942342921977e-05,
      "longitude_deg": 179.98098644869083,
      "height_km": 1078.0839398377025,
      "semi_major_axis_km": 7446.751297336384,
      "eccentricity": 0.0014606,
      "inclination_deg": 88.969,
      "raan_deg": 307.19,
      "arg_perigee_deg": 126.9806,
      "mean_anomaly_deg": 233.2685,
      "mean_motion_rev_day": 13.50991098
    },
    {
      "epoch": "2026-04-15T19:50:07.145376Z",
      "apogee_km": 1079.541796353892,
      "perigee_km": 1057.6870702474425,
      "latitude_deg": -4.583614289782283e-05,
      "longitude_deg": 165.5692637365524,
      "height_km": 1077.6977976701032,
      "semi_major_axis_km": 7446.7514333006675,
      "eccentricity": 0.0014674,
      "inclination_deg": 88.9689,
      "raan_deg": 307.082,
      "arg_perigee_deg": 124.3015,
      "mean_anomaly_deg": 235.9527,
      "mean_motion_rev_day": 13.50991061
    },
    {
      "epoch": "2026-04-16T18:56:35.634048Z",
      "apogee_km": 1079.5864547817446,
      "perigee_km": 1057.642367723065,
      "latitude_deg": 4.205485042402901e-06,
      "longitude_deg": 177.90125538557106,
      "height_km": 1077.3228202231473,
      "semi_major_axis_km": 7446.751411252404,
      "eccentricity": 0.0014734,
      "inclination_deg": 88.9688,
      "raan_deg": 306.9817,
      "arg_perigee_deg": 121.817,
      "mean_anomaly_deg": 238.4418,
      "mean_motion_rev_day": 13.50991067
    },
    {
      "epoch": "2026-04-17T21:36:22.343040Z",
      "apogee_km": 1079.6356537765978,
      "perigee_km": 1057.5928233054428,
      "latitude_deg": -2.015949293342091e-05,
      "longitude_deg": 136.7458261272676,
      "height_km": 1076.8831066935688,
      "semi_major_axis_km": 7446.75123854102,
      "eccentricity": 0.00148003,
      "inclination_deg": 88.9688,
      "raan_deg": 306.8659,
      "arg_perigee_deg": 119.0192,
      "mean_anomaly_deg": 241.2444,
      "mean_motion_rev_day": 13.50991114
    },
    {
      "epoch": "2026-04-18T18:56:11.709888Z",
      "apogee_km": 1079.6714066304994,
      "perigee_km": 1057.5575334650448,
      "latitude_deg": 3.53991114951147e-05,
      "longitude_deg": 175.82142446523636,
      "height_km": 1076.5087552298164,
      "semi_major_axis_km": 7446.751470047771,
      "eccentricity": 0.0014848,
      "inclination_deg": 88.9687,
      "raan_deg": 306.7732,
      "arg_perigee_deg": 116.7292,
      "mean_anomaly_deg": 243.5381,
      "mean_motion_rev_day": 13.50991051
    },
    {
      "epoch": "2026-04-19T19:49:19.303104Z",
      "apogee_km": 1079.7739583481825,
      "perigee_km": 1057.4545554809592,
      "latitude_deg": -4.9193527307031184e-05,
      "longitude_deg": 161.40987469934845,
      "height_km": 1076.060748320999,
      "semi_major_axis_km": 7446.751256914571,
      "eccentricity": 0.0014986,
      "inclination_deg": 88.9686,
      "raan_deg": 306.6653,
      "arg_perigee_deg": 113.9318,
      "mean_anomaly_deg": 246.3404,
      "mean_motion_rev_day": 13.50991109
    },
    {
      "epoch": "2026-04-20T13:35:50.423712Z",
      "apogee_km": 1079.7329929923044,
      "perigee_km": 1057.4956531264106,
      "latitude_deg": 2.751221828362333e-05,
      "longitude_deg": -106.02720069312723,
      "height_km": 1075.7365509927513,
      "semi_major_axis_km": 7446.751323059357,
      "eccentricity": 0.00149309,
      "inclination_deg": 88.9684,
      "raan_deg": 306.5879,
      "arg_perigee_deg": 112.2117,
      "mean_anomaly_deg": 248.062,
      "mean_motion_rev_day": 13.50991091
    }
  ]
}